{
  "links" : {
    "next" : "https://api.nasa.gov/neo/rest/v1/feed?start_date=2010-05-23&end_date=2010-05-23&detailed=true&api_key=t0TVs3DtDT2H8Oy2Zy8m2eVrNsAVKAexjcZXUckd",
    "prev" : "https://api.nasa.gov/neo/rest/v1/feed?start_date=2010-05-21&end_date=2010-05-21&detailed=true&api_key=t0TVs3DtDT2H8Oy2Zy8m2eVrNsAVKAexjcZXUckd",
    "self" : "https://api.nasa.gov/neo/rest/v1/feed?start_date=2010-05-22&end_date=2010-05-22&detailed=true&api_key=t0TVs3DtDT2H8Oy2Zy8m2eVrNsAVKAexjcZXUckd"
  },
  "element_count" : 5,
  "near_earth_objects" : {
    "2010-05-22" : [ {
      "links" : {
        "self" : "https://api.nasa.gov/neo/rest/v1/neo/3522631?api_key=t0TVs3DtDT2H8Oy2Zy8m2eVrNsAVKAexjcZXUckd"
      },
      "neo_reference_id" : "3522631",
      "name" : "(2010 KC)",
      "nasa_jpl_url" : "http://ssd.jpl.nasa.gov/sbdb.cgi?sstr=3522631",
      "absolute_magnitude_h" : 24.1,
      "estimated_diameter" : {
        "kilometers" : {
          "estimated_diameter_min" : 0.040230458,
          "estimated_diameter_max" : 0.0899580388
        },
        "meters" : {
          "estimated_diameter_min" : 40.2304579834,
          "estimated_diameter_max" : 89.9580388169
        },
        "miles" : {
          "estimated_diameter_min" : 0.0249980399,
          "estimated_diameter_max" : 0.0558973165
        },
        "feet" : {
          "estimated_diameter_min" : 131.9896957704,
          "estimated_diameter_max" : 295.1379320721
        }
      },
      "is_potentially_hazardous_asteroid" : false,
      "close_approach_data" : [ {
        "close_approach_date" : "2010-05-22",
        "epoch_date_close_approach" : 1274511600000,
        "relative_velocity" : {
          "kilometers_per_second" : "13.5743476414",
          "kilometers_per_hour" : "48867.6515091016",
          "miles_per_hour" : "30364.4582390859"
        },
        "miss_distance" : {
          "astronomical" : "0.122612973",
          "lunar" : "47.6964492798",
          "kilometers" : "18342640",
          "miles" : "11397588"
        },
        "orbiting_body" : "Earth"
      } ],
      "orbital_data" : {
        "orbit_id" : "6",
        "orbit_determination_date" : "2017-04-06 08:57:29",
        "orbit_uncertainty" : "9",
        "minimum_orbit_intersection" : ".0200444",
        "jupiter_tisserand_invariant" : "7.266",
        "epoch_osculation" : "2455333.5",
        "eccentricity" : ".6059191337788942",
        "semi_major_axis" : ".7824832696933857",
        "inclination" : "2.216003340712846",
        "ascending_node_longitude" : "94.87819462372519",
        "orbital_period" : "252.8197618192299",
        "perihelion_distance" : ".3083616847242926",
        "perihelion_argument" : "296.6204631365722",
        "aphelion_distance" : "1.256604854662479",
        "perihelion_time" : "2455413.268251983450",
        "mean_anomaly" : "246.4148494270997",
        "mean_motion" : "1.423939321078096",
        "equinox" : "J2000"
      }
    }, {
      "links" : {
        "self" : "https://api.nasa.gov/neo/rest/v1/neo/3541504?api_key=t0TVs3DtDT2H8Oy2Zy8m2eVrNsAVKAexjcZXUckd"
      },
      "neo_reference_id" : "3541504",
      "name" : "(2010 OF101)",
      "nasa_jpl_url" : "http://ssd.jpl.nasa.gov/sbdb.cgi?sstr=3541504",
      "absolute_magnitude_h" : 19.6,
      "estimated_diameter" : {
        "kilometers" : {
          "estimated_diameter_min" : 0.3195618867,
          "estimated_diameter_max" : 0.7145621017
        },
        "meters" : {
          "estimated_diameter_min" : 319.5618867213,
          "estimated_diameter_max" : 714.5621017269
        },
        "miles" : {
          "estimated_diameter_min" : 0.1985664891,
          "estimated_diameter_max" : 0.4440081677
        },
        "feet" : {
          "estimated_diameter_min" : 1048.4314204307,
          "estimated_diameter_max" : 2344.3639258298
        }
      },
      "is_potentially_hazardous_asteroid" : false,
      "close_approach_data" : [ {
        "close_approach_date" : "2010-05-22",
        "epoch_date_close_approach" : 1274511600000,
        "relative_velocity" : {
          "kilometers_per_second" : "18.8469895807",
          "kilometers_per_hour" : "67849.1624906348",
          "miles_per_hour" : "42158.8309931392"
        },
        "miss_distance" : {
          "astronomical" : "0.246050712",
          "lunar" : "95.7137298584",
          "kilometers" : "36808664",
          "miles" : "22871844"
        },
        "orbiting_body" : "Earth"
      } ],
      "orbital_data" : {
        "orbit_id" : "32",
        "orbit_determination_date" : "2017-04-06 08:57:05",
        "orbit_uncertainty" : "2",
        "minimum_orbit_intersection" : ".0616621",
        "jupiter_tisserand_invariant" : "6.214",
        "epoch_osculation" : "2458000.5",
        "eccentricity" : ".3250700725247306",
        "semi_major_axis" : ".9510057472906118",
        "inclination" : "23.37397955703911",
        "ascending_node_longitude" : "212.3949196013811",
        "orbital_period" : "338.7451915765727",
        "perihelion_distance" : ".641862240047417",
        "perihelion_argument" : "282.5454837012935",
        "aphelion_distance" : "1.260149254533807",
        "perihelion_time" : "2457992.417579093888",
        "mean_anomaly" : "8.589558165115687",
        "mean_motion" : "1.062745712564964",
        "equinox" : "J2000"
      }
    } ]
  }
}